STARLINK-36596          
1 67670U 26022Y   26061.07466506  .00172858  00000+0  11337-2 0  9994
2 67670  97.2836  94.7271 0001258  84.1718 275.9690 15.75245801  4356
STARLINK-36297          
1 67671U 26022Z   26061.07254776  .00084102  00000+0  55855-3 0  9997
2 67671  97.2843  94.7296 0001508  85.0525 275.0912 15.75216103  4357
STARLINK-36616          
1 67672U 26022AA  26061.07395856  .00141984  00000+0  93506-3 0  9990
2 67672  97.2836  94.7284 0000913 127.3770 232.7578 15.75239400  4351
COSMOS 2600             
1 67674U 26023A   26059.29522708  .00071571  00000+0  32746-3 0  9995
2 67674  96.6452 135.2352 0003248  47.0444 313.1099 15.83528492  3562
2026-023B               
1 67675U 26023B   26061.16388226  .00013682  00000+0  58473-3 0  9994
2 67675  96.6375 134.9839 0019032 157.5822 202.6252 15.22780907  3712
2026-023C               
1 67676U 26023C   26061.22842278  .00013223  00000+0  56321-3 0  9995
2 67676  96.6411 135.0629 0020107 147.7176 212.5298 15.22884751  3881
2026-023D               
1 67677U 26023D   26061.16492664  .00012888  00000+0  55189-3 0  9996
2 67677  96.6442 134.9926 0020309 152.7966 207.4341 15.22702163  3700
2026-023E               
1 67678U 26023E   26061.22883969  .00015455  00000+0  65808-3 0  9998
2 67678  96.6334 135.0345 0020087 152.0694 208.1628 15.22862355  3719
2026-023F               
1 67679U 26023F   26060.24101843  .00013407  00000+0  56870-3 0  9998
2 67679  96.6345 136.6632 0021930 150.3501 209.8986 15.22985190  3554
2026-023G               
1 67680U 26023G   26060.89868392  .00016946  00000+0  71757-3 0  9992
2 67680  96.6272 137.2287 0023514 144.7516 215.5284 15.22962815  3656
2026-023H               
1 67681U 26023H   26061.22722634  .00013886  00000+0  58943-3 0  9991
2 67681  96.6416 137.5454 0023597 142.9524 217.3349 15.22917821  3701
2026-023J               
1 67682U 26023J   26061.22622359  .00015395  00000+0  65117-3 0  9993
2 67682  96.6372 137.5509 0023738 139.8414 220.4585 15.23013964  3707
