CCSDS_OMM_VERS = 2.0
CREATION_DATE  = 
ORIGINATOR     = 

OBJECT_NAME    = STARLINK-36596
OBJECT_ID      = 2026-022Y
CENTER_NAME    = EARTH
REF_FRAME      = TEME
TIME_SYSTEM    = UTC
MEAN_ELEMENT_THEORY = SGP/SGP4

EPOCH          = 2026-03-02T01:47:31.061184
MEAN_MOTION    = 15.75245801
ECCENTRICITY   = .0001258
INCLINATION    = 97.2836
RA_OF_ASC_NODE = 94.7271
ARG_OF_PERICENTER = 84.1718
MEAN_ANOMALY   = 275.9690

EPHEMERIS_TYPE = 0
CLASSIFICATION_TYPE = U
NORAD_CAT_ID   = 67670
ELEMENT_SET_NO = 999
REV_AT_EPOCH   = 435
BSTAR          = .11337E-2
MEAN_MOTION_DOT = .172858E-2
MEAN_MOTION_DDOT = 0

CCSDS_OMM_VERS = 2.0
CREATION_DATE  = 
ORIGINATOR     = 

OBJECT_NAME    = STARLINK-36297
OBJECT_ID      = 2026-022Z
CENTER_NAME    = EARTH
REF_FRAME      = TEME
TIME_SYSTEM    = UTC
MEAN_ELEMENT_THEORY = SGP/SGP4

EPOCH          = 2026-03-02T01:44:28.126464
MEAN_MOTION    = 15.75216103
ECCENTRICITY   = .0001508
INCLINATION    = 97.2843
RA_OF_ASC_NODE = 94.7296
ARG_OF_PERICENTER = 85.0525
MEAN_ANOMALY   = 275.0912

EPHEMERIS_TYPE = 0
CLASSIFICATION_TYPE = U
NORAD_CAT_ID   = 67671
ELEMENT_SET_NO = 999
REV_AT_EPOCH   = 435
BSTAR          = .55855E-3
MEAN_MOTION_DOT = .84102E-3
MEAN_MOTION_DDOT = 0

CCSDS_OMM_VERS = 2.0
CREATION_DATE  = 
ORIGINATOR     = 

OBJECT_NAME    = STARLINK-36616
OBJECT_ID      = 2026-022AA
CENTER_NAME    = EARTH
REF_FRAME      = TEME
TIME_SYSTEM    = UTC
MEAN_ELEMENT_THEORY = SGP/SGP4

EPOCH          = 2026-03-02T01:46:30.019584
MEAN_MOTION    = 15.75239400
ECCENTRICITY   = .0000913
INCLINATION    = 97.2836
RA_OF_ASC_NODE = 94.7284
ARG_OF_PERICENTER = 127.3770
MEAN_ANOMALY   = 232.7578

EPHEMERIS_TYPE = 0
CLASSIFICATION_TYPE = U
NORAD_CAT_ID   = 67672
ELEMENT_SET_NO = 999
REV_AT_EPOCH   = 435
BSTAR          = .93506E-3
MEAN_MOTION_DOT = .141984E-2
MEAN_MOTION_DDOT = 0

CCSDS_OMM_VERS = 2.0
CREATION_DATE  = 
ORIGINATOR     = 

OBJECT_NAME    = COSMOS 2600
OBJECT_ID      = 2026-023A
CENTER_NAME    = EARTH
REF_FRAME      = TEME
TIME_SYSTEM    = UTC
MEAN_ELEMENT_THEORY = SGP/SGP4

EPOCH          = 2026-02-28T07:05:07.619712
MEAN_MOTION    = 15.83528492
ECCENTRICITY   = .00032481
INCLINATION    = 96.6452
RA_OF_ASC_NODE = 135.2352
ARG_OF_PERICENTER = 47.0444
MEAN_ANOMALY   = 313.1099

EPHEMERIS_TYPE = 0
CLASSIFICATION_TYPE = U
NORAD_CAT_ID   = 67674
ELEMENT_SET_NO = 999
REV_AT_EPOCH   = 356
BSTAR          = .32745834E-3
MEAN_MOTION_DOT = .71571E-3
MEAN_MOTION_DDOT = 0

CCSDS_OMM_VERS = 2.0
CREATION_DATE  = 
ORIGINATOR     = 

OBJECT_NAME    = 2026-023B
OBJECT_ID      = 2026-023B
CENTER_NAME    = EARTH
REF_FRAME      = TEME
TIME_SYSTEM    = UTC
MEAN_ELEMENT_THEORY = SGP/SGP4

EPOCH          = 2026-03-02T03:55:59.427264
MEAN_MOTION    = 15.22780907
ECCENTRICITY   = .0019032
INCLINATION    = 96.6375
RA_OF_ASC_NODE = 134.9839
ARG_OF_PERICENTER = 157.5822
MEAN_ANOMALY   = 202.6252

EPHEMERIS_TYPE = 0
CLASSIFICATION_TYPE = U
NORAD_CAT_ID   = 67675
ELEMENT_SET_NO = 999
REV_AT_EPOCH   = 371
BSTAR          = .58473E-3
MEAN_MOTION_DOT = .13682E-3
MEAN_MOTION_DDOT = 0

CCSDS_OMM_VERS = 2.0
CREATION_DATE  = 
ORIGINATOR     = 

OBJECT_NAME    = 2026-023C
OBJECT_ID      = 2026-023C
CENTER_NAME    = EARTH
REF_FRAME      = TEME
TIME_SYSTEM    = UTC
MEAN_ELEMENT_THEORY = SGP/SGP4

EPOCH          = 2026-03-02T05:28:55.728192
MEAN_MOTION    = 15.22884751
ECCENTRICITY   = .0020107
INCLINATION    = 96.6411
RA_OF_ASC_NODE = 135.0629
ARG_OF_PERICENTER = 147.7176
MEAN_ANOMALY   = 212.5298

EPHEMERIS_TYPE = 0
CLASSIFICATION_TYPE = U
NORAD_CAT_ID   = 67676
ELEMENT_SET_NO = 999
REV_AT_EPOCH   = 388
BSTAR          = .56321E-3
MEAN_MOTION_DOT = .13223E-3
MEAN_MOTION_DDOT = 0

CCSDS_OMM_VERS = 2.0
CREATION_DATE  = 
ORIGINATOR     = 

OBJECT_NAME    = 2026-023D
OBJECT_ID      = 2026-023D
CENTER_NAME    = EARTH
REF_FRAME      = TEME
TIME_SYSTEM    = UTC
MEAN_ELEMENT_THEORY = SGP/SGP4

EPOCH          = 2026-03-02T03:57:29.661696
MEAN_MOTION    = 15.22702163
ECCENTRICITY   = .0020309
INCLINATION    = 96.6442
RA_OF_ASC_NODE = 134.9926
ARG_OF_PERICENTER = 152.7966
MEAN_ANOMALY   = 207.4341

EPHEMERIS_TYPE = 0
CLASSIFICATION_TYPE = U
NORAD_CAT_ID   = 67677
ELEMENT_SET_NO = 999
REV_AT_EPOCH   = 370
BSTAR          = .55189E-3
MEAN_MOTION_DOT = .12888E-3
MEAN_MOTION_DDOT = 0

CCSDS_OMM_VERS = 2.0
CREATION_DATE  = 
ORIGINATOR     = 

OBJECT_NAME    = 2026-023E
OBJECT_ID      = 2026-023E
CENTER_NAME    = EARTH
REF_FRAME      = TEME
TIME_SYSTEM    = UTC
MEAN_ELEMENT_THEORY = SGP/SGP4

EPOCH          = 2026-03-02T05:29:31.749216
MEAN_MOTION    = 15.22862355
ECCENTRICITY   = .0020087
INCLINATION    = 96.6334
RA_OF_ASC_NODE = 135.0345
ARG_OF_PERICENTER = 152.0694
MEAN_ANOMALY   = 208.1628

EPHEMERIS_TYPE = 0
CLASSIFICATION_TYPE = U
NORAD_CAT_ID   = 67678
ELEMENT_SET_NO = 999
REV_AT_EPOCH   = 371
BSTAR          = .65808E-3
MEAN_MOTION_DOT = .15455E-3
MEAN_MOTION_DDOT = 0

CCSDS_OMM_VERS = 2.0
CREATION_DATE  = 
ORIGINATOR     = 

OBJECT_NAME    = 2026-023F
OBJECT_ID      = 2026-023F
CENTER_NAME    = EARTH
REF_FRAME      = TEME
TIME_SYSTEM    = UTC
MEAN_ELEMENT_THEORY = SGP/SGP4

EPOCH          = 2026-03-01T05:47:03.992352
MEAN_MOTION    = 15.22985190
ECCENTRICITY   = .002193
INCLINATION    = 96.6345
RA_OF_ASC_NODE = 136.6632
ARG_OF_PERICENTER = 150.3501
MEAN_ANOMALY   = 209.8986

EPHEMERIS_TYPE = 0
CLASSIFICATION_TYPE = U
NORAD_CAT_ID   = 67679
ELEMENT_SET_NO = 999
REV_AT_EPOCH   = 355
BSTAR          = .5687E-3
MEAN_MOTION_DOT = .13407E-3
MEAN_MOTION_DDOT = 0

CCSDS_OMM_VERS = 2.0
CREATION_DATE  = 
ORIGINATOR     = 

OBJECT_NAME    = 2026-023G
OBJECT_ID      = 2026-023G
CENTER_NAME    = EARTH
REF_FRAME      = TEME
TIME_SYSTEM    = UTC
MEAN_ELEMENT_THEORY = SGP/SGP4

EPOCH          = 2026-03-01T21:34:06.290688
MEAN_MOTION    = 15.22962815
ECCENTRICITY   = .0023514
INCLINATION    = 96.6272
RA_OF_ASC_NODE = 137.2287
ARG_OF_PERICENTER = 144.7516
MEAN_ANOMALY   = 215.5284

EPHEMERIS_TYPE = 0
CLASSIFICATION_TYPE = U
NORAD_CAT_ID   = 67680
ELEMENT_SET_NO = 999
REV_AT_EPOCH   = 365
BSTAR          = .71757E-3
MEAN_MOTION_DOT = .16946E-3
MEAN_MOTION_DDOT = 0

CCSDS_OMM_VERS = 2.0
CREATION_DATE  = 
ORIGINATOR     = 

OBJECT_NAME    = 2026-023H
OBJECT_ID      = 2026-023H
CENTER_NAME    = EARTH
REF_FRAME      = TEME
TIME_SYSTEM    = UTC
MEAN_ELEMENT_THEORY = SGP/SGP4

EPOCH          = 2026-03-02T05:27:12.355776
MEAN_MOTION    = 15.22917821
ECCENTRICITY   = .0023597
INCLINATION    = 96.6416
RA_OF_ASC_NODE = 137.5454
ARG_OF_PERICENTER = 142.9524
MEAN_ANOMALY   = 217.3349

EPHEMERIS_TYPE = 0
CLASSIFICATION_TYPE = U
NORAD_CAT_ID   = 67681
ELEMENT_SET_NO = 999
REV_AT_EPOCH   = 370
BSTAR          = .58943E-3
MEAN_MOTION_DOT = .13886E-3
MEAN_MOTION_DDOT = 0

CCSDS_OMM_VERS = 2.0
CREATION_DATE  = 
ORIGINATOR     = 

OBJECT_NAME    = 2026-023J
OBJECT_ID      = 2026-023J
CENTER_NAME    = EARTH
REF_FRAME      = TEME
TIME_SYSTEM    = UTC
MEAN_ELEMENT_THEORY = SGP/SGP4

EPOCH          = 2026-03-02T05:25:45.718176
MEAN_MOTION    = 15.23013964
ECCENTRICITY   = .0023738
INCLINATION    = 96.6372
RA_OF_ASC_NODE = 137.5509
ARG_OF_PERICENTER = 139.8414
MEAN_ANOMALY   = 220.4585

EPHEMERIS_TYPE = 0
CLASSIFICATION_TYPE = U
NORAD_CAT_ID   = 67682
ELEMENT_SET_NO = 999
REV_AT_EPOCH   = 370
BSTAR          = .65117E-3
MEAN_MOTION_DOT = .15395E-3
MEAN_MOTION_DDOT = 0

